[
    {
        "Altitude(m)": 710567.5532721613,
        "Argument of Periapsis(deg)": 0.006834072711976239,
        "Eccentricity": 0.0,
        "Inclination(deg)": 45.0,
        "Latitude(deg)": -26.99551039525852,
        "Longitude(deg)": -175.00836754900038,
        "Mean Anomaly(deg)": 219.64722998848856,
        "RAAN(deg)": 74.99354883512507,
        "Satellite Name": "Constellation 1 343",
        "Satellite Number": 343,
        "Semi-Major Axis(m)": 7083131.272910544,
        "Time(s)": 114
    },
    {
        "Altitude(m)": 710581.3996215444,
        "Argument of Periapsis(deg)": 0.006894020718221645,
        "Eccentricity": 0.0,
        "Inclination(deg)": 45.0,
        "Latitude(deg)": -27.032626040753943,
        "Longitude(deg)": -174.95863672778617,
        "Mean Anomaly(deg)": 219.70793112873844,
        "RAAN(deg)": 74.99349224595952,
        "Satellite Name": "Constellation 1 343",
        "Satellite Number": 343,
        "Semi-Major Axis(m)": 7083131.272910544,
        "Time(s)": 115
    },
    {
        "Altitude(m)": 710595.2458222304,
        "Argument of Periapsis(deg)": 0.006953968724467052,
        "Eccentricity": 0.0,
        "Inclination(deg)": 45.0,
        "Latitude(deg)": -27.069720806858218,
        "Longitude(deg)": -174.9088706490439,
        "Mean Anomaly(deg)": 219.7686322689883,
        "RAAN(deg)": 74.99343565679395,
        "Satellite Name": "Constellation 1 343",
        "Satellite Number": 343,
        "Semi-Major Axis(m)": 7083131.272910544,
        "Time(s)": 116
    },
    {
        "Altitude(m)": 710609.0918264659,
        "Argument of Periapsis(deg)": 0.007013916730712457,
        "Eccentricity": 0.0,
        "Inclination(deg)": 45.0,
        "Latitude(deg)": -27.106794647421584,
        "Longitude(deg)": -174.85906925283518,
        "Mean Anomaly(deg)": 219.82933340923816,
        "RAAN(deg)": 74.99337906762837,
        "Satellite Name": "Constellation 1 343",
        "Satellite Number": 343,
        "Semi-Major Axis(m)": 7083131.272910544,
        "Time(s)": 117
    },
    {
        "Altitude(m)": 710622.9375865057,
        "Argument of Periapsis(deg)": 0.007073864736957864,
        "Eccentricity": 0.0,
        "Inclination(deg)": 45.0,
        "Latitude(deg)": -27.143847516227716,
        "Longitude(deg)": -174.80923247923533,
        "Mean Anomaly(deg)": 219.89003454948812,
        "RAAN(deg)": 74.9933224784628,
        "Satellite Name": "Constellation 1 343",
        "Satellite Number": 343,
        "Semi-Major Axis(m)": 7083131.272910544,
        "Time(s)": 118
    },
    {
        "Altitude(m)": 710636.78305457,
        "Argument of Periapsis(deg)": 0.0071338127432032696,
        "Eccentricity": 0.0,
        "Inclination(deg)": 45.0,
        "Latitude(deg)": -27.180879366992503,
        "Longitude(deg)": -174.75936043643244,
        "Mean Anomaly(deg)": 219.95073568973802,
        "RAAN(deg)": 74.99326588929723,
        "Satellite Name": "Constellation 1 343",
        "Satellite Number": 343,
        "Semi-Major Axis(m)": 7083131.272910544,
        "Time(s)": 119
    },
    {
        "Altitude(m)": 710650.6281828904,
        "Argument of Periapsis(deg)": 0.007193760749448674,
        "Eccentricity": 0.0,
        "Inclination(deg)": 45.0,
        "Latitude(deg)": -27.21789015336613,
        "Longitude(deg)": -174.70945272833788,
        "Mean Anomaly(deg)": 220.01143682998787,
        "RAAN(deg)": 74.99320930013167,
        "Satellite Name": "Constellation 1 343",
        "Satellite Number": 343,
        "Semi-Major Axis(m)": 7083131.272910544,
        "Time(s)": 120
    },
    {
        "Altitude(m)": 710664.4729236754,
        "Argument of Periapsis(deg)": 0.007253708755694079,
        "Eccentricity": 0.0,
        "Inclination(deg)": 45.0,
        "Latitude(deg)": -27.254879828930587,
        "Longitude(deg)": -174.65950946316997,
        "Mean Anomaly(deg)": 220.07213797023783,
        "RAAN(deg)": 74.99315271096609,
        "Satellite Name": "Constellation 1 343",
        "Satellite Number": 343,
        "Semi-Major Axis(m)": 7083131.272910544,
        "Time(s)": 121
    },
    {
        "Altitude(m)": 710678.3172291295,
        "Argument of Periapsis(deg)": 0.0073136567619394854,
        "Eccentricity": 0.0,
        "Inclination(deg)": 45.0,
        "Latitude(deg)": -27.291848347200844,
        "Longitude(deg)": -174.6095305810663,
        "Mean Anomaly(deg)": 220.1328391104877,
        "RAAN(deg)": 74.99309612180052,
        "Satellite Name": "Constellation 1 343",
        "Satellite Number": 343,
        "Semi-Major Axis(m)": 7083131.272910544,
        "Time(s)": 122
    },
    {
        "Altitude(m)": 710692.1610514416,
        "Argument of Periapsis(deg)": 0.0073736047681848904,
        "Eccentricity": 0.0,
        "Inclination(deg)": 45.0,
        "Latitude(deg)": -27.328795661624756,
        "Longitude(deg)": -174.5595160221807,
        "Mean Anomaly(deg)": 220.19354025073758,
        "RAAN(deg)": 74.99303953263497,
        "Satellite Name": "Constellation 1 343",
        "Satellite Number": 343,
        "Semi-Major Axis(m)": 7083131.272910544,
        "Time(s)": 123
    },
    {
        "Altitude(m)": 710706.0043427991,
        "Argument of Periapsis(deg)": 0.007433552774430298,
        "Eccentricity": 0.0,
        "Inclination(deg)": 45.0,
        "Latitude(deg)": -27.365721725582688,
        "Longitude(deg)": -174.50946572668383,
        "Mean Anomaly(deg)": 220.2542413909875,
        "RAAN(deg)": 74.99298294346939,
        "Satellite Name": "Constellation 1 343",
        "Satellite Number": 343,
        "Semi-Major Axis(m)": 7083131.272910544,
        "Time(s)": 124
    },
    {
        "Altitude(m)": 710719.8470553728,
        "Argument of Periapsis(deg)": 0.007493500780675703,
        "Eccentricity": 0.0,
        "Inclination(deg)": 45.0,
        "Latitude(deg)": -27.402626492387576,
        "Longitude(deg)": -174.45937963476408,
        "Mean Anomaly(deg)": 220.31494253123745,
        "RAAN(deg)": 74.99292635430382,
        "Satellite Name": "Constellation 1 343",
        "Satellite Number": 343,
        "Semi-Major Axis(m)": 7083131.272910544,
        "Time(s)": 125
    },
    {
        "Altitude(m)": 710733.6891413212,
        "Argument of Periapsis(deg)": 0.007553448786921108,
        "Eccentricity": 0.0,
        "Inclination(deg)": 45.0,
        "Latitude(deg)": -27.439509915284397,
        "Longitude(deg)": -174.4092578547246,
        "Mean Anomaly(deg)": 220.37564367148727,
        "RAAN(deg)": 74.99286976513824,
        "Satellite Name": "Constellation 1 343",
        "Satellite Number": 343,
        "Semi-Major Axis(m)": 7083131.272910544,
        "Time(s)": 126
    },
    {
        "Altitude(m)": 710747.5305528081,
        "Argument of Periapsis(deg)": 0.007613396793166514,
        "Eccentricity": 0.0,
        "Inclination(deg)": 45.0,
        "Latitude(deg)": -27.47637194745166,
        "Longitude(deg)": -174.35909999059544,
        "Mean Anomaly(deg)": 220.43634481173717,
        "RAAN(deg)": 74.99281317597269,
        "Satellite Name": "Constellation 1 343",
        "Satellite Number": 343,
        "Semi-Major Axis(m)": 7083131.272910544,
        "Time(s)": 127
    },
    {
        "Altitude(m)": 710761.3712419717,
        "Argument of Periapsis(deg)": 0.007673344799411918,
        "Eccentricity": 0.0,
        "Inclination(deg)": 45.0,
        "Latitude(deg)": -27.513212541999156,
        "Longitude(deg)": -174.30890615071658,
        "Mean Anomaly(deg)": 220.4970459519871,
        "RAAN(deg)": 74.9927565868071,
        "Satellite Name": "Constellation 1 343",
        "Satellite Number": 343,
        "Semi-Major Axis(m)": 7083131.272910544,
        "Time(s)": 128
    },
    {
        "Altitude(m)": 710775.2111609526,
        "Argument of Periapsis(deg)": 0.007733292805657325,
        "Eccentricity": 0.0,
        "Inclination(deg)": 45.0,
        "Latitude(deg)": -27.550031651969178,
        "Longitude(deg)": -174.2586762753503,
        "Mean Anomaly(deg)": 220.55774709223704,
        "RAAN(deg)": 74.99269999764154,
        "Satellite Name": "Constellation 1 343",
        "Satellite Number": 343,
        "Semi-Major Axis(m)": 7083131.272910544,
        "Time(s)": 129
    },
    {
        "Altitude(m)": 710789.0502618769,
        "Argument of Periapsis(deg)": 0.00779324081190273,
        "Eccentricity": 0.0,
        "Inclination(deg)": 45.0,
        "Latitude(deg)": -27.5868292303362,
        "Longitude(deg)": -174.20841030477828,
        "Mean Anomaly(deg)": 220.61844823248688,
        "RAAN(deg)": 74.99264340847597,
        "Satellite Name": "Constellation 1 343",
        "Satellite Number": 343,
        "Semi-Major Axis(m)": 7083131.272910544,
        "Time(s)": 130
    },
    {
        "Altitude(m)": 710802.8884968676,
        "Argument of Periapsis(deg)": 0.007853188818148135,
        "Eccentricity": 0.0,
        "Inclination(deg)": 45.0,
        "Latitude(deg)": -27.623605230006813,
        "Longitude(deg)": -174.15810817930236,
        "Mean Anomaly(deg)": 220.67914937273676,
        "RAAN(deg)": 74.9925868193104,
        "Satellite Name": "Constellation 1 343",
        "Satellite Number": 343,
        "Semi-Major Axis(m)": 7083131.272910544,
        "Time(s)": 131
    },
    {
        "Altitude(m)": 710816.7258180351,
        "Argument of Periapsis(deg)": 0.007913136824393542,
        "Eccentricity": 0.0,
        "Inclination(deg)": 45.0,
        "Latitude(deg)": -27.660359603819554,
        "Longitude(deg)": -174.10776983924498,
        "Mean Anomaly(deg)": 220.7398505129867,
        "RAAN(deg)": 74.99253023014484,
        "Satellite Name": "Constellation 1 343",
        "Satellite Number": 343,
        "Semi-Major Axis(m)": 7083131.272910544,
        "Time(s)": 132
    }
]